*******************************************************************************
Ephemeris / WWW_USER Mon Jul 15 19:15:58 2024 Pasadena, USA      / Horizons    
*******************************************************************************
Target body name: (2018 WV1)                      {source: JPL#17}
Center body name: Earth (399)                     {source: DE441}
Center-site name: Gemini South Obs., Cerro Pachon
*******************************************************************************
Start time      : A.D. 2018-Nov-14 23:25:00.0000 UT      
Stop  time      : A.D. 2018-Nov-15 09:29:00.0000 UT      
Step-size       : 1 minutes
*******************************************************************************
Target pole/equ : undefined
Target radii    : undefined                                                    
Center geodetic : 289.2634, -30.2406227, 2.71233  {E-lon(deg),Lat(deg),Alt(km)}
Center cylindric: 289.2634,5517.21435,-3194.81213 {E-lon(deg),Dxy(km),Dz(km)}
Center pole/equ : ITRF93                          {East-longitude positive}
Center radii    : 6378.137, 6378.137, 6356.752 km {Equator_a, b, pole_c}       
Target primary  : Sun
Vis. interferer : MOON (R_eq= 1737.400) km        {source: DE441}
Rel. light bend : Sun                             {source: DE441}
Rel. lght bnd GM: 1.3271E+11 km^3/s^2                                          
Small-body perts: Yes                             {source: SB441-N16}
Atmos refraction: NO (AIRLESS)
RA format       : HMS
Time format     : CAL 
Calendar mode   : Mixed Julian/Gregorian
RTS-only print  : NO       
EOP file        : eop.240715.p241008                                           
EOP coverage    : DATA-BASED 1962-JAN-20 TO 2024-JUL-15. PREDICTS-> 2024-OCT-07
Units conversion: 1 au= 149597870.700 km, c= 299792.458 km/s, 1 day= 86400.0 s 
Table cut-offs 1: Elevation (-90.0deg=NO ),Airmass (>38.000=NO), Daylight (YES)
Table cut-offs 2: Solar elongation (  0.0,180.0=NO ),Local Hour Angle( 0.0=NO )
Table cut-offs 3: RA/DEC angular rate (     0.0=NO )                           
*******************************************************************************
Initial IAU76/J2000 heliocentric ecliptic osculating elements (au, days, deg.):
  EPOCH=  2458458.5 ! 2018-Dec-06.00 (TDB)         Residual RMS= .12928        
   EC= .06869100257422787  QR= .9715505345748198   TP= 2458416.866413563       
   OM= 248.5061090469913   W=  141.3742304527303   IN= 1.905403987972275       
  Equivalent ICRF heliocentric cartesian coordinates (au, au/d):
   X= 2.787163119783287E-01  Y= 8.719775267121872E-01  Z= 3.748421051204766E-01
  VX=-1.676682657337402E-02 VY= 5.516972965834891E-03 VZ= 1.749720915605096E-03
Asteroid physical parameters (km, seconds, rotational period in hours):        
   GM= n.a.                RAD= n.a.               ROTPER= n.a.                
   H= 30.3                 G= .150                 B-V= n.a.                   
                           ALBEDO= n.a.            STYP= n.a.                  
*******************************************************************************
 Date__(UT)__HR:MN     R.A._________(ICRF)_________DEC
******************************************************
$$SOE
 2018-Nov-15 07:37     01 33 10.386884 +22 25 36.17361
 2018-Nov-15 07:38     01 33 10.308721 +22 25 35.58818
 2018-Nov-15 07:39     01 33 10.231104 +22 25 35.00191
 2018-Nov-15 07:40     01 33 10.154032 +22 25 34.41483
 2018-Nov-15 07:41     01 33 10.077507 +22 25 33.82693
 2018-Nov-15 07:42     01 33 10.001528 +22 25 33.23824
 2018-Nov-15 07:43     01 33 09.926098 +22 25 32.64877
 2018-Nov-15 07:44     01 33 09.851215 +22 25 32.05853
 2018-Nov-15 07:45     01 33 09.776882 +22 25 31.46753
 2018-Nov-15 07:46     01 33 09.703099 +22 25 30.87578
 2018-Nov-15 07:47     01 33 09.629865 +22 25 30.28331
 2018-Nov-15 07:48     01 33 09.557183 +22 25 29.69012
 2018-Nov-15 07:49     01 33 09.485052 +22 25 29.09622
 2018-Nov-15 07:50     01 33 09.413474 +22 25 28.50163
 2018-Nov-15 07:51     01 33 09.342448 +22 25 27.90636
 2018-Nov-15 07:52     01 33 09.271975 +22 25 27.31042
 2018-Nov-15 07:53     01 33 09.202057 +22 25 26.71383
 2018-Nov-15 07:54     01 33 09.132692 +22 25 26.11659
 2018-Nov-15 07:55     01 33 09.063883 +22 25 25.51873
 2018-Nov-15 07:56  s  01 33 08.995629 +22 25 24.92026
 2018-Nov-15 07:57     01 33 08.927932 +22 25 24.32118
 2018-Nov-15 07:58     01 33 08.860791 +22 25 23.72151
 2018-Nov-15 07:59     01 33 08.794206 +22 25 23.12126
 2018-Nov-15 08:00     01 33 08.728180 +22 25 22.52045
 2018-Nov-15 08:01     01 33 08.662712 +22 25 21.91910
 2018-Nov-15 08:02     01 33 08.597802 +22 25 21.31720
 2018-Nov-15 08:03     01 33 08.533451 +22 25 20.71478
 2018-Nov-15 08:04     01 33 08.469659 +22 25 20.11185
 2018-Nov-15 08:05     01 33 08.406428 +22 25 19.50842
 2018-Nov-15 08:06     01 33 08.343756 +22 25 18.90450
 2018-Nov-15 08:07     01 33 08.281646 +22 25 18.30011
 2018-Nov-15 08:08 A   01 33 08.220096 +22 25 17.69526
 2018-Nov-15 08:09 A   01 33 08.159109 +22 25 17.08997
 2018-Nov-15 08:10 A   01 33 08.098683 +22 25 16.48424
 2018-Nov-15 08:11 A   01 33 08.038819 +22 25 15.87810
 2018-Nov-15 08:12 A   01 33 07.979518 +22 25 15.27154
 2018-Nov-15 08:13 A   01 33 07.920780 +22 25 14.66459
 2018-Nov-15 08:14 A   01 33 07.862605 +22 25 14.05727
 2018-Nov-15 08:15 A   01 33 07.804994 +22 25 13.44957
 2018-Nov-15 08:16 A   01 33 07.747947 +22 25 12.84152
 2018-Nov-15 08:17 A   01 33 07.691465 +22 25 12.23313
 2018-Nov-15 08:18 A   01 33 07.635547 +22 25 11.62441
 2018-Nov-15 08:19 A   01 33 07.580193 +22 25 11.01537
 2018-Nov-15 08:20 A   01 33 07.525406 +22 25 10.40604
 2018-Nov-15 08:21 A   01 33 07.471183 +22 25 09.79641
 2018-Nov-15 08:22 A   01 33 07.417526 +22 25 09.18651
 2018-Nov-15 08:23 A   01 33 07.364436 +22 25 08.57635
 2018-Nov-15 08:24 A   01 33 07.311911 +22 25 07.96593
 2018-Nov-15 08:25 A   01 33 07.259953 +22 25 07.35528
 2018-Nov-15 08:26 A   01 33 07.208561 +22 25 06.74441
 2018-Nov-15 08:27 A   01 33 07.157737 +22 25 06.13333
 2018-Nov-15 08:28 A   01 33 07.107479 +22 25 05.52205
 2018-Nov-15 08:29 A   01 33 07.057789 +22 25 04.91059
 2018-Nov-15 08:30 A   01 33 07.008665 +22 25 04.29896
 2018-Nov-15 08:31 A   01 33 06.960110 +22 25 03.68717
 2018-Nov-15 08:32 A   01 33 06.912122 +22 25 03.07524
 2018-Nov-15 08:33 A   01 33 06.864702 +22 25 02.46318
 2018-Nov-15 08:34 A   01 33 06.817850 +22 25 01.85100
 2018-Nov-15 08:35 A   01 33 06.771566 +22 25 01.23872
 2018-Nov-15 08:36 A   01 33 06.725850 +22 25 00.62634
 2018-Nov-15 08:37 A   01 33 06.680703 +22 25 00.01389
 2018-Nov-15 08:38 A   01 33 06.636123 +22 24 59.40137
 2018-Nov-15 08:39 A   01 33 06.592113 +22 24 58.78881
 2018-Nov-15 08:40 A   01 33 06.548670 +22 24 58.17620
 2018-Nov-15 08:41 N   01 33 06.505797 +22 24 57.56357
 2018-Nov-15 08:42 N   01 33 06.463491 +22 24 56.95093
 2018-Nov-15 08:43 N   01 33 06.421755 +22 24 56.33829
 2018-Nov-15 08:44 N   01 33 06.380587 +22 24 55.72566
 2018-Nov-15 08:45 N   01 33 06.339987 +22 24 55.11307
 2018-Nov-15 08:46 N   01 33 06.299957 +22 24 54.50051
 2018-Nov-15 08:47 N   01 33 06.260494 +22 24 53.88801
 2018-Nov-15 08:48 N   01 33 06.221601 +22 24 53.27558
 2018-Nov-15 08:49 N   01 33 06.183276 +22 24 52.66323
 2018-Nov-15 08:50 N   01 33 06.145519 +22 24 52.05097
 2018-Nov-15 08:51 N   01 33 06.108331 +22 24 51.43882
 2018-Nov-15 08:52 N   01 33 06.071711 +22 24 50.82679
 2018-Nov-15 08:53 N   01 33 06.035660 +22 24 50.21489
 2018-Nov-15 08:54 N   01 33 06.000176 +22 24 49.60315
 2018-Nov-15 08:55 N   01 33 05.965261 +22 24 48.99156
 2018-Nov-15 08:56 N   01 33 05.930914 +22 24 48.38014
 2018-Nov-15 08:57 N   01 33 05.897135 +22 24 47.76892
 2018-Nov-15 08:58 N   01 33 05.863923 +22 24 47.15789
 2018-Nov-15 08:59 N   01 33 05.831279 +22 24 46.54707
 2018-Nov-15 09:00 N   01 33 05.799202 +22 24 45.93649
 2018-Nov-15 09:01 N   01 33 05.767693 +22 24 45.32614
 2018-Nov-15 09:02 N   01 33 05.736750 +22 24 44.71604
 2018-Nov-15 09:03 N   01 33 05.706375 +22 24 44.10621
 2018-Nov-15 09:04 N   01 33 05.676566 +22 24 43.49666
 2018-Nov-15 09:05 N   01 33 05.647324 +22 24 42.88740
 2018-Nov-15 09:06 N   01 33 05.618647 +22 24 42.27845
 2018-Nov-15 09:07 N   01 33 05.590537 +22 24 41.66982
 2018-Nov-15 09:08 N   01 33 05.562993 +22 24 41.06152
 2018-Nov-15 09:09 N   01 33 05.536014 +22 24 40.45356
 2018-Nov-15 09:10 N   01 33 05.509601 +22 24 39.84596
 2018-Nov-15 09:11 N   01 33 05.483752 +22 24 39.23873
 2018-Nov-15 09:12 N   01 33 05.458468 +22 24 38.63189
 2018-Nov-15 09:13 C   01 33 05.433748 +22 24 38.02544
 2018-Nov-15 09:14 C   01 33 05.409593 +22 24 37.41940
 2018-Nov-15 09:15 C   01 33 05.386001 +22 24 36.81379
 2018-Nov-15 09:16 C   01 33 05.362973 +22 24 36.20862
 2018-Nov-15 09:17 C   01 33 05.340508 +22 24 35.60389
 2018-Nov-15 09:18 C   01 33 05.318605 +22 24 34.99963
 2018-Nov-15 09:19 C   01 33 05.297265 +22 24 34.39584
 2018-Nov-15 09:20 C   01 33 05.276487 +22 24 33.79254
 2018-Nov-15 09:21 C   01 33 05.256270 +22 24 33.18974
 2018-Nov-15 09:22 C   01 33 05.236615 +22 24 32.58746
 2018-Nov-15 09:23 C   01 33 05.217521 +22 24 31.98571
 2018-Nov-15 09:24 C   01 33 05.198986 +22 24 31.38450
 2018-Nov-15 09:25 C   01 33 05.181012 +22 24 30.78384
 2018-Nov-15 09:26 C   01 33 05.163598 +22 24 30.18375
 2018-Nov-15 09:27 C   01 33 05.146742 +22 24 29.58424
 2018-Nov-15 09:28 C   01 33 05.130445 +22 24 28.98533
 2018-Nov-15 09:29 C   01 33 05.114707 +22 24 28.38701
